[{"OBJECT_NAME":"KUIPER-00130","OBJECT_ID":"2025-228N","EPOCH":"2026-03-09T23:25:45.285312","MEAN_MOTION":14.79902266,"ECCENTRICITY":6.059e-5,"INCLINATION":51.903,"RA_OF_ASC_NODE":349.3445,"ARG_OF_PERICENTER":87.581,"MEAN_ANOMALY":272.5222,"EPHEMERIS_TYPE":0,"CLASSIFICATION_TYPE":"U","NORAD_CAT_ID":65959,"ELEMENT_SET_NO":999,"REV_AT_EPOCH":1370,"BSTAR":0.00026674985,"MEAN_MOTION_DOT":1.812e-5,"MEAN_MOTION_DDOT":0},{"OBJECT_NAME":"FENGYUN 1C DEB","OBJECT_ID":"1999-025BPE","EPOCH":"2026-03-09T18:26:54.503232","MEAN_MOTION":14.78648757,"ECCENTRICITY":0.00200285,"INCLINATION":99.0642,"RA_OF_ASC_NODE":358.9756,"ARG_OF_PERICENTER":319.3641,"MEAN_ANOMALY":40.6071,"EPHEMERIS_TYPE":0,"CLASSIFICATION_TYPE":"U","NORAD_CAT_ID":31296,"ELEMENT_SET_NO":999,"REV_AT_EPOCH":98632,"BSTAR":0.0057442422,"MEAN_MOTION_DOT":0.00042417,"MEAN_MOTION_DDOT":0}]
